[{"OBJECT_NAME":"COSMOS 2571","OBJECT_ID":"2023-165C","EPOCH":"2026-03-09T19:25:49.566144","MEAN_MOTION":13.97323702,"ECCENTRICITY":0.0010141,"INCLINATION":67.1509,"RA_OF_ASC_NODE":169.1542,"ARG_OF_PERICENTER":25.0362,"MEAN_ANOMALY":335.1212,"EPHEMERIS_TYPE":0,"CLASSIFICATION_TYPE":"U","NORAD_CAT_ID":58172,"ELEMENT_SET_NO":999,"REV_AT_EPOCH":12047,"BSTAR":5.9518e-5,"MEAN_MOTION_DOT":8.0e-8,"MEAN_MOTION_DDOT":0},{"OBJECT_NAME":"FENGYUN 1C DEB","OBJECT_ID":"1999-025CEN","EPOCH":"2026-03-07T09:27:38.615616","MEAN_MOTION":14.19263881,"ECCENTRICITY":0.01272502,"INCLINATION":98.7318,"RA_OF_ASC_NODE":125.6075,"ARG_OF_PERICENTER":194.185,"MEAN_ANOMALY":165.5741,"EPHEMERIS_TYPE":0,"CLASSIFICATION_TYPE":"U","NORAD_CAT_ID":31739,"ELEMENT_SET_NO":999,"REV_AT_EPOCH":96687,"BSTAR":0.00013415407,"MEAN_MOTION_DOT":2.61e-6,"MEAN_MOTION_DDOT":0}]
